{
  "type": "FeatureCollection",
  "features": [
    {
      "type": "Feature",
      "properties": {
        "norad_id": 41866,
        "name": "GOES 16",
        "group": "weather",
        "lat": -0.033166693406810596,
        "lon": -63.98821095827637,
        "alt_km": 35774.47568955352,
        "timestamp": "2025-12-08T21:31:04.318302+00:00",
        "meta_object_name": "GOES 16",
        "meta_object_id": "2016-071A",
        "meta_epoch": "2025-12-08T12:19:18.259392",
        "meta_mean_motion": 1.00270836,
        "meta_eccentricity": 0.0003435,
        "meta_inclination": 0.0679,
        "meta_ra_of_asc_node": 102.9899,
        "meta_arg_of_pericenter": 157.7577,
        "meta_mean_anomaly": 256.9271,
        "meta_ephemeris_type": 0,
        "meta_classification_type": "U",
        "meta_norad_cat_id": 41866,
        "meta_element_set_no": 999,
        "meta_rev_at_epoch": 3319,
        "meta_bstar": 0,
        "meta_mean_motion_dot": -8.9e-07,
        "meta_mean_motion_ddot": 0,
        "tle_line1": "1 41866U 16071A   25342.51340578 -.00000089  00000+0  00000+0 0  9995",
        "tle_line2": "2 41866   0.0679 102.9899 0003435 157.7577 256.9271  1.00270836 33196"
      },
      "geometry": {
        "type": "Point",
        "coordinates": [
          -63.98821095827637,
          -0.033166693406810596
        ]
      }
    },
    {
      "type": "Feature",
      "properties": {
        "norad_id": 41882,
        "name": "FENGYUN 4A",
        "group": "weather",
        "lat": 1.822122133059925,
        "lon": 164.44549016569917,
        "alt_km": 35774.795568000765,
        "timestamp": "2025-12-08T21:31:04.318314+00:00",
        "meta_object_name": "FENGYUN 4A",
        "meta_object_id": "2016-077A",
        "meta_epoch": "2025-12-08T14:29:38.895360",
        "meta_mean_motion": 1.00275489,
        "meta_eccentricity": 0.00049426,
        "meta_inclination": 1.8387,
        "meta_ra_of_asc_node": 82.432,
        "meta_arg_of_pericenter": 142.9861,
        "meta_mean_anomaly": 193.4343,
        "meta_ephemeris_type": 0,
        "meta_classification_type": "U",
        "meta_norad_cat_id": 41882,
        "meta_element_set_no": 999,
        "meta_rev_at_epoch": 3301,
        "meta_bstar": 0,
        "meta_mean_motion_dot": -3.55e-06,
        "meta_mean_motion_ddot": 0,
        "tle_line1": "1 41882U 16077A   25342.60392240 -.00000355  00000+0  00000+0 0  9998",
        "tle_line2": "2 41882   1.8387  82.4320 0004942 142.9861 193.4343  1.00275489 33011"
      },
      "geometry": {
        "type": "Point",
        "coordinates": [
          164.44549016569917,
          1.822122133059925
        ]
      }
    },
    {
      "type": "Feature",
      "properties": {
        "norad_id": 41884,
        "name": "CYGFM05",
        "group": "weather",
        "lat": 13.652074740011336,
        "lon": -128.1116205710533,
        "alt_km": 414.7383495799986,
        "timestamp": "2025-12-08T21:31:04.318335+00:00",
        "meta_object_name": "CYGFM05",
        "meta_object_id": "2016-078A",
        "meta_epoch": "2025-12-08T14:39:21.010176",
        "meta_mean_motion": 15.47407611,
        "meta_eccentricity": 0.0009636,
        "meta_inclination": 34.9599,
        "meta_ra_of_asc_node": 74.0987,
        "meta_arg_of_pericenter": 144.4766,
        "meta_mean_anomaly": 215.6599,
        "meta_ephemeris_type": 0,
        "meta_classification_type": "U",
        "meta_norad_cat_id": 41884,
        "meta_element_set_no": 999,
        "meta_rev_at_epoch": 49912,
        "meta_bstar": 0.00048584417,
        "meta_mean_motion_dot": 0.0002572,
        "meta_mean_motion_ddot": 0,
        "tle_line1": "1 41884U 16078A   25342.61065984  .00025720  00000+0  48584-3 0  9999",
        "tle_line2": "2 41884  34.9599  74.0987 0009636 144.4766 215.6599 15.47407611499125"
      },
      "geometry": {
        "type": "Point",
        "coordinates": [
          -128.1116205710533,
          13.652074740011336
        ]
      }
    },
    {
      "type": "Feature",
      "properties": {
        "norad_id": 41885,
        "name": "CYGFM04",
        "group": "weather",
        "lat": -1.5843259245122967,
        "lon": 44.84748503419668,
        "alt_km": 421.59423599259026,
        "timestamp": "2025-12-08T21:31:04.318346+00:00",
        "meta_object_name": "CYGFM04",
        "meta_object_id": "2016-078B",
        "meta_epoch": "2025-12-08T13:48:05.285088",
        "meta_mean_motion": 15.50097993,
        "meta_eccentricity": 0.00090153,
        "meta_inclination": 34.9353,
        "meta_ra_of_asc_node": 49.227,
        "meta_arg_of_pericenter": 173.4438,
        "meta_mean_anomaly": 186.6404,
        "meta_ephemeris_type": 0,
        "meta_classification_type": "U",
        "meta_norad_cat_id": 41885,
        "meta_element_set_no": 999,
        "meta_rev_at_epoch": 49929,
        "meta_bstar": 0.00050241883,
        "meta_mean_motion_dot": 0.00029253,
        "meta_mean_motion_ddot": 0,
        "tle_line1": "1 41885U 16078B   25342.57506117  .00029253  00000+0  50242-3 0  9992",
        "tle_line2": "2 41885  34.9353  49.2270 0009015 173.4438 186.6404 15.50097993499294"
      },
      "geometry": {
        "type": "Point",
        "coordinates": [
          44.84748503419668,
          -1.5843259245122967
        ]
      }
    },
    {
      "type": "Feature",
      "properties": {
        "norad_id": 41886,
        "name": "CYGFM02",
        "group": "weather",
        "lat": -4.998062616485733,
        "lon": 38.29886211392141,
        "alt_km": 419.14559074537647,
        "timestamp": "2025-12-08T21:31:04.318357+00:00",
        "meta_object_name": "CYGFM02",
        "meta_object_id": "2016-078C",
        "meta_epoch": "2025-12-08T13:50:02.361408",
        "meta_mean_motion": 15.51459598,
        "meta_eccentricity": 0.00106831,
        "meta_inclination": 34.9442,
        "meta_ra_of_asc_node": 47.5977,
        "meta_arg_of_pericenter": 172.6655,
        "meta_mean_anomaly": 187.4225,
        "meta_ephemeris_type": 0,
        "meta_classification_type": "U",
        "meta_norad_cat_id": 41886,
        "meta_element_set_no": 999,
        "meta_rev_at_epoch": 49942,
        "meta_bstar": 0.00050541607,
        "meta_mean_motion_dot": 0.00030924,
        "meta_mean_motion_ddot": 0,
        "tle_line1": "1 41886U 16078C   25342.57641622  .00030924  00000+0  50542-3 0  9994",
        "tle_line2": "2 41886  34.9442  47.5977 0010683 172.6655 187.4225 15.51459598499423"
      },
      "geometry": {
        "type": "Point",
        "coordinates": [
          38.29886211392141,
          -4.998062616485733
        ]
      }
    },
    {
      "type": "Feature",
      "properties": {
        "norad_id": 41887,
        "name": "CYGFM01",
        "group": "weather",
        "lat": -6.798237741874733,
        "lon": -95.56076230799059,
        "alt_km": 418.5730351368593,
        "timestamp": "2025-12-08T21:31:04.318368+00:00",
        "meta_object_name": "CYGFM01",
        "meta_object_id": "2016-078D",
        "meta_epoch": "2025-12-08T14:30:10.089216",
        "meta_mean_motion": 15.47978786,
        "meta_eccentricity": 0.00091886,
        "meta_inclination": 34.9428,
        "meta_ra_of_asc_node": 76.5193,
        "meta_arg_of_pericenter": 135.9839,
        "meta_mean_anomaly": 224.1615,
        "meta_ephemeris_type": 0,
        "meta_classification_type": "U",
        "meta_norad_cat_id": 41887,
        "meta_element_set_no": 999,
        "meta_rev_at_epoch": 49906,
        "meta_bstar": 0.0004857316,
        "meta_mean_motion_dot": 0.00026231,
        "meta_mean_motion_ddot": 0,
        "tle_line1": "1 41887U 16078D   25342.60428344  .00026231  00000+0  48573-3 0  9990",
        "tle_line2": "2 41887  34.9428  76.5193 0009188 135.9839 224.1615 15.47978786499066"
      },
      "geometry": {
        "type": "Point",
        "coordinates": [
          -95.56076230799059,
          -6.798237741874733
        ]
      }
    },
    {
      "type": "Feature",
      "properties": {
        "norad_id": 41888,
        "name": "CYGFM08",
        "group": "weather",
        "lat": -23.294826952713247,
        "lon": -84.28916772537173,
        "alt_km": 416.6383986885894,
        "timestamp": "2025-12-08T21:31:04.318379+00:00",
        "meta_object_name": "CYGFM08",
        "meta_object_id": "2016-078E",
        "meta_epoch": "2025-12-08T14:22:18.112800",
        "meta_mean_motion": 15.49171763,
        "meta_eccentricity": 0.00110721,
        "meta_inclination": 34.9463,
        "meta_ra_of_asc_node": 59.5943,
        "meta_arg_of_pericenter": 161.1133,
        "meta_mean_anomaly": 199.0002,
        "meta_ephemeris_type": 0,
        "meta_classification_type": "U",
        "meta_norad_cat_id": 41888,
        "meta_element_set_no": 999,
        "meta_rev_at_epoch": 49929,
        "meta_bstar": 0.00050018778,
        "meta_mean_motion_dot": 0.00028201,
        "meta_mean_motion_ddot": 0,
        "tle_line1": "1 41888U 16078E   25342.59882075  .00028201  00000+0  50019-3 0  9991",
        "tle_line2": "2 41888  34.9463  59.5943 0011072 161.1133 199.0002 15.49171763499290"
      },
      "geometry": {
        "type": "Point",
        "coordinates": [
          -84.28916772537173,
          -23.294826952713247
        ]
      }
    }
  ]
}